IRIDIUM 119             
1 42959U 17061E   24299.95465900  .00000690  00000+0  23933-3 0  9995
2 42959  86.3918 275.6300 0002469  96.1432 264.0045 14.34221103368925
IRIDIUM 107             
1 42960U 17061F   24299.69460595  .00000199  00000+0  63888-4 0  9991
2 42960  86.3921 275.7566 0002571  91.8843 268.2647 14.34223060368892
IRIDIUM 132             
1 42961U 17061G   24299.70095639  .00000332  00000+0  11152-3 0  9992
2 42961  86.3915 275.7379 0002619  87.5304 272.6192 14.34219642368890
IRIDIUM 136             
1 42962U 17061H   24299.94197083  .00000546  00000+0  18802-3 0  9991
2 42962  86.3919 275.6407 0002255  92.8651 267.2803 14.34221911368943
IRIDIUM 139             
1 42963U 17061J   24299.94831796 -.00000146  00000+0 -59251-4 0  9990
2 42963  86.3914 275.6901 0002506  90.6019 269.5464 14.34219491368950
IRIDIUM 125             
1 42964U 17061K   24298.88910597  .00000189  00000+0  60305-4 0  9997
2 42964  86.3921 276.1838 0002493 100.3653 259.7823 14.34218388368811
IRIDIUM 135             
1 43070U 17083A   24299.83998575  .00000521  00000+0  17893-3 0  9991
2 43070  86.4023 212.4612 0001940  69.5565 290.5839 14.34221183358244
IRIDIUM 138             
1 43071U 17083B   24299.79556678  .00000654  00000+0  22653-3 0  9998
2 43071  86.4010 212.1810 0001929  97.2457 262.8958 14.34213662358228
